OBJECT_NAME,OBJECT_ID,EPOCH,MEAN_MOTION,ECCENTRICITY,INCLINATION,RA_OF_ASC_NODE,ARG_OF_PERICENTER,MEAN_ANOMALY,EPHEMERIS_TYPE,CLASSIFICATION_TYPE,NORAD_CAT_ID,ELEMENT_SET_NO,REV_AT_EPOCH,BSTAR,MEAN_MOTION_DOT,MEAN_MOTION_DDOT
BEIDOU-3 G4,2023-066A,2026-06-03T22:49:38.498592,1.00268987,.00043888,0.5027,328.1156,167.4897,239.2413,0,U,56564,999,1126,0,-.269E-5,0
ARABSAT-7B (BADR-8),2023-075A,2026-06-03T20:34:26.033664,1.00273347,.00049364,0.0772,28.1469,355.2343,203.5508,0,U,56757,999,1098,0,.157E-5,0
NVS-01 (IRNSS-1J),2023-076A,2026-06-03T21:04:02.715744,1.00272394,.00028741,2.1979,244.9507,44.3672,48.6257,0,U,56759,999,1098,0,-.323E-5,0
NUSANTARA TIGA (SATRIA),2023-086A,2026-06-03T17:43:20.980128,1.00269891,.00036398,0.0380,341.7960,3.8036,318.4303,0,U,57045,999,962,0,-.223E-5,0
H2SAT (HEINRICH HERTZ),2023-093A,2026-06-03T22:09:57.197952,1.00272458,.00009728,0.0448,125.0236,330.4081,130.1108,0,U,57213,999,1078,0,.14E-6,0
SYRACUSE 4B,2023-093B,2026-06-03T22:07:49.902240,1.00271795,.00003289,0.0177,354.2626,136.6611,86.9699,0,U,57214,999,683,0,0,0
JUPITER 3 (ECHOSTAR 24),2023-108A,2026-06-03T13:32:51.874656,1.00270212,.00012346,0.0193,329.9698,102.0529,287.9908,0,U,57479,999,1050,0,0,0
GALAXY 37 (G-37),2023-112A,2026-06-03T21:33:22.403808,1.00273009,.00022706,0.0155,311.1389,124.6295,12.9342,0,U,57493,999,1041,0,.6E-6,0
LUDI TANCE-4 01A,2023-120A,2026-06-02T17:43:53.939136,1.00272712,.00007623,15.1104,194.3254,72.9345,339.6342,0,U,57624,999,1040,0,-.162E-5,0
TJS-10,2023-169A,2026-06-03T17:28:14.581056,1.00269817,.0003775,2.5097,80.6492,96.3835,69.6584,0,U,58204,999,940,0,-.238E-5,0
ZHONGXING-6E,2023-172A,2026-06-03T22:42:39.169152,1.00269534,.0002687,0.0165,333.6251,104.3856,270.5942,0,U,58253,999,952,0,0,0
YAOGAN-41,2023-197A,2026-06-03T22:44:46.465728,1.00266178,.00140518,3.1532,312.9279,188.4081,215.3531,0,U,58582,999,919,0,-.351E-5,0
OVZON-3,2024-003A,2026-06-03T20:44:02.612832,1.00273715,.00003773,0.0046,290.3850,182.5001,150.1485,0,U,58698,999,731,0,.63E-6,0
INSAT-3DS,2024-033A,2026-06-03T20:50:26.520000,1.00271130,.00016539,0.0159,244.4285,180.6636,221.9062,0,U,58990,999,4693,0,-.144E-5,0
MERAH PUTIH 2,2024-035A,2026-06-03T20:59:18.170304,1.00271576,.00015983,0.0162,277.9082,142.7594,259.4444,0,U,58995,999,845,0,-.346E-5,0
TJS-11,2024-037A,2026-05-27T19:49:38.827776,1.00203688,.0009231,4.2247,326.8251,68.5888,267.4904,0,U,59020,999,837,0,-.366E-5,0
HULIANWAN GAOGUI-01 (HG-01),2024-040A,2026-06-03T22:19:20.508672,1.00272436,.00032464,0.0664,329.3724,74.3016,217.1655,0,U,59069,999,719,0,.168E-5,0
EUTELSAT 36D,2024-059A,2026-06-03T22:19:42.972672,1.00270948,.0000783,0.0165,7.2936,137.5076,118.3861,0,U,59346,999,801,0,.168E-5,0
PAKSAT-MM1,2024-104A,2026-06-03T15:29:55.900032,1.00274914,.00020461,0.0154,42.0049,27.2826,93.4750,0,U,59915,999,739,0,.165E-5,0
ASTRA 1P (SES-24),2024-115A,2026-06-03T20:32:26.226240,1.00270392,.00008315,0.0653,18.4107,3.6201,197.5954,0,U,60086,999,706,0,.132E-5,0
GOES 19,2024-119A,2026-06-03T21:48:20.968128,1.00271819,.00006683,0.0463,136.4856,352.8767,14.9023,0,U,60133,999,683,0,-.236E-5,0
ZHONGXING-3A,2024-122A,2026-06-02T15:43:35.119776,1.00266908,.0001879,0.0473,109.1771,345.7961,133.5861,0,U,60179,999,716,0,-.3E-5,0
TURKSAT 6A,2024-127A,2026-06-03T22:21:41.179104,1.00270854,.00016787,0.0478,170.0047,308.1629,151.6446,0,U,60233,999,688,0,.158E-5,0
HULIANWAN GAOGUI-02 (HG-02),2024-135A,2026-06-02T17:47:51.139968,1.00269974,.00078061,0.0426,356.0531,12.4792,302.8319,0,U,60327,999,735,0,-.161E-5,0
ZHONGXING-4A,2024-151A,2026-06-03T21:00:48.027168,1.00273071,.0000606,1.3489,270.9957,180.9187,233.8473,0,U,60606,999,662,0,-.35E-5,0
HULIANWAN GAOGUI-03 (HG-03),2024-181A,2026-06-03T21:47:43.528416,1.00270815,.00014088,0.0443,359.2159,99.5287,43.4167,0,U,61503,999,669,0,-.229E-5,0
DSN-3 (KIRAMEKI-3),2024-198A,2026-06-03T21:08:09.820608,1.00272040,.00007389,0.0150,13.5633,112.0237,227.8661,0,U,61733,999,578,0,-.238E-5,0
KOREASAT 6A,2024-206A,2026-06-03T21:00:10.585728,1.00269674,.00010868,0.0107,22.3666,60.8513,240.1603,0,U,61910,999,570,0,-.35E-5,0
OPTUS-X (ADS-01),2024-212A,2026-06-03T21:11:39.485760,1.00274109,.0001823,0.0184,290.0869,182.5046,254.0670,0,U,62006,999,562,0,-.131E-5,0
GSAT-N2 (GSAT-20),2024-214A,2026-06-03T20:46:24.885984,1.00275027,.00022019,0.0210,237.1930,200.3486,194.4233,0,U,62028,999,576,0,-.9E-7,0
SXM-9,2024-234A,2026-06-03T21:45:28.742688,1.00270712,.00045758,0.0142,329.7787,346.4512,177.3496,0,U,62259,999,544,0,-.193E-5,0
