BEIDOU-3 G4             
1 56564U 23066A   26154.95114003 -.00000269  00000+0  00000+0 0  9990
2 56564   0.5027 328.1156 0004388 167.4897 239.2413  1.00268987 11268
ARABSAT-7B (BADR-8)     
1 56757U 23075A   26154.85724576  .00000157  00000+0  00000+0 0  9990
2 56757   0.0772  28.1469 0004936 355.2343 203.5508  1.00273347 10983
NVS-01 (IRNSS-1J)       
1 56759U 23076A   26154.87780921 -.00000323  00000+0  00000+0 0  9997
2 56759   2.1979 244.9507 0002874  44.3672  48.6257  1.00272394 10988
NUSANTARA TIGA (SATRIA) 
1 57045U 23086A   26154.73843727 -.00000223  00000+0  00000+0 0  9995
2 57045   0.0380 341.7960 0003639   3.8036 318.4303  1.00269891  9620
H2SAT (HEINRICH HERTZ)  
1 57213U 23093A   26154.92357868  .00000014  00000+0  00000+0 0  9994
2 57213   0.0448 125.0236 0000972 330.4081 130.1108  1.00272458 10781
SYRACUSE 4B             
1 57214U 23093B   26154.92210535  .00000000  00000+0  00000+0 0  9999
2 57214   0.0177 354.2626 0000328 136.6611  86.9699  1.00271795  6837
JUPITER 3 (ECHOSTAR 24) 
1 57479U 23108A   26154.56448929  .00000000  00000+0  00000+0 0  9999
2 57479   0.0193 329.9698 0001234 102.0529 287.9908  1.00270212 10506
GALAXY 37 (G-37)        
1 57493U 23112A   26154.89817597  .00000060  00000+0  00000+0 0  9993
2 57493   0.0155 311.1389 0002270 124.6295  12.9342  1.00273009 10416
LUDI TANCE-4 01A        
1 57624U 23120A   26153.73881874 -.00000162  00000+0  00000+0 0  9993
2 57624  15.1104 194.3254 0000762  72.9345 339.6342  1.00272712 10408
TJS-10                  
1 58204U 23169A   26154.72794654 -.00000238  00000+0  00000+0 0  9994
2 58204   2.5097  80.6492 0003775  96.3835  69.6584  1.00269817  9404
ZHONGXING-6E            
1 58253U 23172A   26154.94628668  .00000000  00000+0  00000+0 0  9993
2 58253   0.0165 333.6251 0002687 104.3856 270.5942  1.00269534  9525
YAOGAN-41               
1 58582U 23197A   26154.94776002 -.00000351  00000+0  00000+0 0  9991
2 58582   3.1532 312.9279 0014051 188.4081 215.3531  1.00266178  9198
OVZON-3                 
1 58698U 24003A   26154.86391913  .00000063  00000+0  00000+0 0  9990
2 58698   0.0046 290.3850 0000377 182.5001 150.1485  1.00273715  7310
INSAT-3DS               
1 58990U 24033A   26154.86836250 -.00000144  00000+0  00000+0 0  9997
2 58990   0.0159 244.4285 0001653 180.6636 221.9062  1.00271130 46931
MERAH PUTIH 2           
1 58995U 24035A   26154.87451586 -.00000346  00000+0  00000+0 0  9994
2 58995   0.0162 277.9082 0001598 142.7594 259.4444  1.00271576  8455
TJS-11                  
1 59020U 24037A   26147.82614384 -.00000366  00000+0  00000+0 0  9992
2 59020   4.2247 326.8251 0009231  68.5888 267.4904  1.00203688  8370
HULIANWAN GAOGUI-01 (H*)
1 59069U 24040A   26154.93009848  .00000168  00000+0  00000+0 0  9991
2 59069   0.0664 329.3724 0003246  74.3016 217.1655  1.00272436  7192
EUTELSAT 36D            
1 59346U 24059A   26154.93035848  .00000168  00000+0  00000+0 0  9998
2 59346   0.0165   7.2936 0000783 137.5076 118.3861  1.00270948  8013
PAKSAT-MM1              
1 59915U 24104A   26154.64578588  .00000165  00000+0  00000+0 0  9999
2 59915   0.0154  42.0049 0002046  27.2826  93.4750  1.00274914  7394
ASTRA 1P (SES-24)       
1 60086U 24115A   26154.85585910  .00000132  00000+0  00000+0 0  9996
2 60086   0.0653  18.4107 0000831   3.6201 197.5954  1.00270392  7068
GOES 19                 
1 60133U 24119A   26154.90857602 -.00000236  00000+0  00000+0 0  9995
2 60133   0.0463 136.4856 0000668 352.8767  14.9023  1.00271819  6834
ZHONGXING-3A            
1 60179U 24122A   26153.65526759 -.00000300  00000+0  00000+0 0  9998
2 60179   0.0473 109.1771 0001879 345.7961 133.5861  1.00266908  7168
TURKSAT 6A              
1 60233U 24127A   26154.93172661  .00000158  00000+0  00000+0 0  9995
2 60233   0.0478 170.0047 0001678 308.1629 151.6446  1.00270854  6881
HULIANWAN GAOGUI-02 (H*)
1 60327U 24135A   26153.74156412 -.00000161  00000+0  00000+0 0  9997
2 60327   0.0426 356.0531 0007806  12.4792 302.8319  1.00269974  7350
ZHONGXING-4A            
1 60606U 24151A   26154.87555587 -.00000350  00000+0  00000+0 0  9996
2 60606   1.3489 270.9957 0000606 180.9187 233.8473  1.00273071  6625
HULIANWAN GAOGUI-03 (H*)
1 61503U 24181A   26154.90814269 -.00000229  00000+0  00000+0 0  9990
2 61503   0.0443 359.2159 0001408  99.5287  43.4167  1.00270815  6695
DSN-3 (KIRAMEKI-3)      
1 61733U 24198A   26154.88066922 -.00000238  00000+0  00000+0 0  9995
2 61733   0.0150  13.5633 0000738 112.0237 227.8661  1.00272040  5781
KOREASAT 6A             
1 61910U 24206A   26154.87512252 -.00000350  00000+0  00000+0 0  9998
2 61910   0.0107  22.3666 0001086  60.8513 240.1603  1.00269674  5703
OPTUS-X (ADS-01)        
1 62006U 24212A   26154.88309590 -.00000131  00000+0  00000+0 0  9999
2 62006   0.0184 290.0869 0001823 182.5046 254.0670  1.00274109  5624
GSAT-N2 (GSAT-20)       
1 62028U 24214A   26154.86556581 -.00000009  00000+0  00000+0 0  9991
2 62028   0.0210 237.1930 0002201 200.3486 194.4233  1.00275027  5764
SXM-9                   
1 62259U 24234A   26154.90658267 -.00000193  00000+0  00000+0 0  9992
2 62259   0.0142 329.7787 0004575 346.4512 177.3496  1.00270712  5442
